[
    {
        "CCSDS_OMM_VERS": "3.0",
        "COMMENT": "GENERATED VIA SPACE-TRACK.ORG API",
        "CREATION_DATE": "2025-02-28T19:05:01",
        "ORIGINATOR": "18 SPCS",
        "OBJECT_NAME": "GALILEO 16 (26C)",
        "OBJECT_ID": "2016-069B",
        "CENTER_NAME": "EARTH",
        "REF_FRAME": "TEME",
        "TIME_SYSTEM": "UTC",
        "MEAN_ELEMENT_THEORY": "SGP4",
        "EPOCH": "2025-02-28T05:26:17.352672",
        "MEAN_MOTION": "1.70474740",
        "ECCENTRICITY": "0.00031310",
        "INCLINATION": "55.2123",
        "RA_OF_ASC_NODE": "114.2113",
        "ARG_OF_PERICENTER": "323.0873",
        "MEAN_ANOMALY": "36.9851",
        "EPHEMERIS_TYPE": "0",
        "CLASSIFICATION_TYPE": "U",
        "NORAD_CAT_ID": "41860",
        "ELEMENT_SET_NO": "999",
        "REV_AT_EPOCH": "5157",
        "BSTAR": "0.00000000000000",
        "MEAN_MOTION_DOT": "0.00000030",
        "MEAN_MOTION_DDOT": "0.0000000000000",
        "SEMIMAJOR_AXIS": "29600.234",
        "PERIOD": "844.700",
        "APOAPSIS": "23231.367",
        "PERIAPSIS": "23212.832",
        "OBJECT_TYPE": "PAYLOAD",
        "RCS_SIZE": "LARGE",
        "COUNTRY_CODE": "ESA",
        "LAUNCH_DATE": "2016-11-17",
        "SITE": "FRGUI",
        "DECAY_DATE": null,
        "FILE": "4655208",
        "GP_ID": "281920603",
        "TLE_LINE0": "0 GALILEO 16 (26C)",
        "TLE_LINE1": "1 41860U 16069B   25059.22658973  .00000030  00000-0  00000-0 0  9997",
        "TLE_LINE2": "2 41860  55.2123 114.2113 0003131 323.0873  36.9851  1.70474740 51570"
    }
]